sat29065
1 29065U 78100AX  20046.28882132  .00000101  00000-0  11686-2 0  9990
2 29065  82.5357 242.3390 0021849 210.4693 323.6834 11.98654361728309
